ONEWEB-0113             
1 48050U 21025J   24104.58914465 -.00000120  00000+0 -36391-3 0  9999
2 48050  87.8895 118.3943 0001804  88.7453 271.3883 13.13469815149277
ONEWEB-0112             
1 48051U 21025K   24104.57643019 -.00000537  00000+0 -15057-2 0  9990
2 48051  87.8889 118.4007 0002035  87.1372 272.9990 13.13473556149287
ONEWEB-0156             
1 48052U 21025L   24104.58596886 -.00000004  00000+0 -46722-4 0  9995
2 48052  87.8894 118.3930 0002032  90.3940 269.7422 13.13470311149260
ONEWEB-0161             
1 48053U 21025M   24104.55897547  .00000302  00000+0  79235-3 0  9994
2 48053  87.8895 118.4042 0002124  96.8386 263.2985 13.13472147149200
ONEWEB-0158             
1 48054U 21025N   24104.59705934 -.00000505  00000+0 -14185-2 0  9996
2 48054  87.8893 118.3884 0001923  87.0058 273.1291 13.13469272149324
ONEWEB-0157             
1 48055U 21025P   24104.54469236 -.00000268  00000+0 -77006-3 0  9992
2 48055  87.8890 118.4152 0002214  91.3034 268.8348 13.13469699149256
ONEWEB-0162             
1 48056U 21025Q   24104.58436014  .00000073  00000+0  16573-3 0  9999
2 48056  87.8890 118.4036 0002025  89.3319 270.8042 13.13471256149235
ONEWEB-0155             
1 48057U 21025R   24104.52882235 -.00000285  00000+0 -81455-3 0  9992
2 48057  87.8891 118.4240 0001972  92.5011 267.6344 13.13471649149368
ONEWEB-0149             
1 48058U 21025S   24104.54946925  .00000072  00000+0  16323-3 0  9996
2 48058  87.8890 118.4169 0002189  86.5005 273.6375 13.13470034149172
ONEWEB-0148             
1 48059U 21025T   24104.59073056 -.00000176  00000+0 -51780-3 0  9991
2 48059  87.8896 118.4160 0002616  85.1323 275.0105 13.13470196149304
ONEWEB-0160             
1 48060U 21025U   24104.53040582 -.00000425  00000+0 -11976-2 0  9994
2 48060  87.8895 118.4242 0001298  67.4275 292.6991 13.13469051149249
ONEWEB-0163             
1 48061U 21025V   24104.59230375 -.00000246  00000+0 -70832-3 0  9990
2 48061  87.8893 118.4061 0002244  96.2490 263.8895 13.13467759149378
ONEWEB-0159             
1 48062U 21025W   24104.58119704  .00000063  00000+0  13653-3 0  9995
2 48062  87.8891 118.3925 0002221  90.9405 269.1979 13.13467226149299
ONEWEB-0164             
1 48063U 21025X   24104.56374471  .00000276  00000+0  72027-3 0  9994
2 48063  87.8892 118.4060 0001858  94.7845 265.3496 13.13471154149283
ONEWEB-0167             
1 48064U 21025Y   24104.59309570 -.00000222  00000+0 -64396-3 0  9999
2 48064  87.8894 118.4108 0002169  94.6093 265.5284 13.13467548149266
ONEWEB-0166             
1 48065U 21025Z   24104.53834847 -.00000154  00000+0 -45678-3 0  9990
2 48065  87.8888 118.4078 0002188  87.7808 272.3571 13.13471779149338
ONEWEB-0151             
1 48066U 21025AA  24104.53993990 -.00000133  00000+0 -39878-3 0  9998
2 48066  87.8892 118.4193 0001858  95.8753 264.2588 13.13472505149273
ONEWEB-0170             
1 48067U 21025AB  24104.54786437  .00000101  00000+0  24116-3 0  9998
2 48067  87.8891 118.4195 0001367 100.4846 259.6437 13.13472380149234
ONEWEB-0168             
1 48068U 21025AC  24104.53359442 -.00000221  00000+0 -64046-3 0  9991
2 48068  87.8893 118.3903 0002079  92.2023 267.9344 13.13469021149247
ONEWEB-0173             
1 48069U 21025AD  24104.52564631 -.00000488  00000+0 -13719-2 0  9994
2 48069  87.8896 118.4025 0002261 104.2302 255.9079 13.13468729149486
ONEWEB-0171             
1 48070U 21025AE  24104.56215395  .00000308  00000+0  80920-3 0  9998
2 48070  87.8895 118.4301 0001948  96.2183 263.9168 13.13471659149307
ONEWEB-0172             
1 48071U 21025AF  24104.54151279 -.00000280  00000+0 -80203-3 0  9992
2 48071  87.8894 118.4008 0002019  98.2624 261.8734 13.13469242150193
ONEWEB-0174             
1 48072U 21025AG  24104.52406414 -.00000257  00000+0 -73784-3 0  9995
2 48072  87.8896 118.4185 0002117  88.6181 271.5191 13.13469672149518
ONEWEB-0175             
1 48073U 21025AH  24104.55262434  .00000163  00000+0  41062-3 0  9999
2 48073  87.8888 118.4053 0001664 100.9838 259.1478 13.13471656149174
ONEWEB-0177             
1 48074U 21025AJ  24104.56532492  .00000318  00000+0  83524-3 0  9996
2 48074  87.8890 118.4096 0002414  96.9500 263.1904 13.13471522149361
ONEWEB-0178             
1 48075U 21025AK  24104.58291702  .00000035  00000+0  61341-4 0  9995
2 48075  87.8898 118.4193 0002210  95.6460 264.4921 13.13470918149410
ONEWEB-0108             
1 48076U 21025AL  24104.54309961 -.00000063  00000+0 -20712-3 0  9998
2 48076  87.8889 118.4119 0001962  84.3331 275.8022 13.13472155149338
ONEWEB-0169             
1 48077U 21025AM  24104.57485310  .00000274  00000+0  71606-3 0  9995
2 48077  87.8893 118.4137 0001968  82.8393 277.2960 13.13470643147998
ONEWEB-0176             
1 48210U 21031A   24104.43320796 -.00000100  00000+0 -30321-3 0  9991
2 48210  87.8908  87.8443 0001931  86.7657 273.3693 13.14505408143905
ONEWEB-0184             
1 48211U 21031B   24104.48237284  .00000299  00000+0  77277-3 0  9994
2 48211  87.8904  87.8205 0001478 120.1236 240.0041 13.14503404143889
ONEWEB-0179             
1 48212U 21031C   24104.45223665 -.00000072  00000+0 -22978-3 0  9999
2 48212  87.8906  87.8271 0002067  88.4011 271.7356 13.14500410143926
ONEWEB-0180             
1 48213U 21031D   24104.48553104  .00000294  00000+0  75839-3 0  9995
2 48213  87.8906  87.8201 0002112  90.9402 269.1969 13.14500947143817
ONEWEB-0218             
1 48214U 21031E   24104.50774658 -.00000105  00000+0 -31818-3 0  9990
2 48214  87.8907  87.8174 0001890 121.6173 238.5142 13.14503604143970
ONEWEB-0209             
1 48215U 21031F   24104.49662886  .00000133  00000+0  32500-3 0  9996
2 48215  87.8910  87.8521 0002118  88.1908 271.9465 13.14500878143977
ONEWEB-0198             
1 48216U 21031G   24104.48076240  .00000334  00000+0  86745-3 0  9992
2 48216  87.8907  87.8607 0002032 100.2531 259.8828 13.14504114144080
ONEWEB-0189             
1 48217U 21031H   24104.49346918  .00000153  00000+0  37866-3 0  9995
2 48217  87.8908  87.8340 0002113 101.1720 258.9647 13.14503597143820
ONEWEB-0196             
1 48218U 21031J   24104.47126174  .00000253  00000+0  64800-3 0  9993
2 48218  87.8909  87.8408 0001879  92.2558 267.8787 13.14504501143824
ONEWEB-0183             
1 48219U 21031K   24104.44587464 -.00000138  00000+0 -40634-3 0  9997
2 48219  87.8906  87.8632 0002066  87.4535 272.6832 13.14504981143918
ONEWEB-0185             
1 48220U 21031L   24104.47206106 -.00001768  00000+0 -48034-2 0  9994
2 48220  87.8906  87.8302 0002602  84.4805 275.6622 13.14513341143849
ONEWEB-0187             
1 48221U 21031M   24104.51804478 -.00000161  00000+0 -46865-3 0  9993
2 48221  87.8908  87.8533 0002124  87.0035 273.1338 13.14503997143866
ONEWEB-0192             
1 48222U 21031N   24104.49822341  .00000057  00000+0  11913-3 0  9998
2 48222  87.8909  87.8543 0001906  91.8513 268.2834 13.14504047143773
ONEWEB-0219             
1 48223U 21031P   24104.47761242  .00000302  00000+0  78117-3 0  9991
2 48223  87.8908  87.8329 0002150  89.8359 270.3017 13.14502310143972
ONEWEB-0202             
1 48224U 21031Q   24104.45856581 -.00000237  00000+0 -67282-3 0  9991
2 48224  87.8905  87.8568 0002096 112.4725 247.6627 13.14502341143950
ONEWEB-0204             
1 48225U 21031R   24104.87326468  .00000133  00000+0  32304-3 0  9994
2 48225  87.8908  87.7861 0002131  75.5151 284.6215 13.14503620143912
ONEWEB-0205             
1 48226U 21031S   24104.84867929  .00000103  00000+0  24346-3 0  9998
2 48226  87.8906  87.7622 0002177  89.6916 270.4463 13.14504541143923
ONEWEB-0206             
1 48227U 21031T   24104.44113439 -.00000182  00000+0 -52488-3 0  9992
2 48227  87.8905  87.8344 0002227  87.4550 272.6835 13.14503583143811
ONEWEB-0182             
1 48228U 21031U   24104.51248174 -.00000197  00000+0 -56612-3 0  9995
2 48228  87.8909  87.8445 0002031  82.1643 277.9717 13.14504700144030
ONEWEB-0186             
1 48229U 21031V   24104.44747943 -.00000126  00000+0 -37485-3 0  9995
2 48229  87.8906  87.8218 0001955  90.5276 269.6078 13.14503663143972
ONEWEB-0181             
1 48230U 21031W   24104.88197395  .00000001  00000+0 -30673-4 0  9999
2 48230  87.8911  87.8041 0001923  91.9547 268.1803 13.14500574143894
ONEWEB-0188             
1 48231U 21031X   24104.46333839  .00000080  00000+0  18035-3 0  9992
2 48231  87.8905  87.8845 0002031  87.5730 272.5633 13.14503773143733
ONEWEB-0220             
1 48232U 21031Y   24104.88356540 -.00000029  00000+0 -11286-3 0  9999
2 48232  87.8904  87.7686 0002315  89.8098 270.3297 13.14500826144056
ONEWEB-0165             
1 48233U 21031Z   24104.45540289  .00000586  00000+0  15457-2 0  9997
2 48233  87.8909  87.8666 0002126  96.0604 264.0768 13.14499705143958
ONEWEB-0199             
1 48234U 21031AA  24104.51565123 -.00000460  00000+0 -12749-2 0  9993
2 48234  87.8906  87.8252 0002032  89.2469 270.8894 13.14502887143867
ONEWEB-0203             
1 48235U 21031AB  24104.88673105 -.00000041  00000+0 -14534-3 0  9994
2 48235  87.8908  87.7522 0001437  93.0041 267.1253 13.14504342143929
ONEWEB-0197             
1 48236U 21031AC  24104.48157475  .00000294  00000+0  75897-3 0  9995
2 48236  87.8909  87.8411 0002146  77.1212 283.0157 13.14503736143780
ONEWEB-0194             
1 48237U 21031AD  24104.46016316  .00000053  00000+0  10736-3 0  9996
2 48237  87.8907  87.8380 0001635  85.8000 274.3317 13.14503782143958
ONEWEB-0193             
1 48238U 21031AE  24104.47603204  .00000313  00000+0  80940-3 0  9999
2 48238  87.8907  87.8430 0001878  92.2305 267.9040 13.14504591143909
ONEWEB-0191             
1 48239U 21031AF  24104.48712519  .00000279  00000+0  71800-3 0  9997
2 48239  87.8905  87.8263 0001871  88.5613 271.5731 13.14503769143763
ONEWEB-0195             
1 48240U 21031AG  24104.46412539  .00000130  00000+0  31539-3 0  9997
2 48240  87.8904  87.8305 0002195  99.9690 260.1687 13.14508406143747
